ENVISAT                 
1 27386U 02009A   23010.51477591  .00000284  00000+0  10707-3 0  9993
2 27386  98.2103 347.1927 0001195  85.5213  23.8977 14.38212511 93291
IDEFIX & ARIANE 42P R/B 
1 27422U 02021B   23010.42684332  .00000385  00000+0  16718-3 0  9991
2 27422  98.4753 315.4543 0012097 352.3974   7.7023 14.29521131 77127
AQUA                    
1 27424U 02022A   23010.42904966  .00001131  00000+0  25872-3 0  9993
2 27424  98.2713 315.6075 0000878  49.2776  59.9962 14.57567701100370
CZ-4B R/B               
1 27432U 02024C   23010.05117969  .00000051  00000+0  50259-4 0  9990
2 27432  99.0431  42.8893 0051140  54.0971 336.2303 14.14171119 66100
MIDORI II (ADEOS-II)    
1 27597U 02056A   23010.08446740  .00000401  00000+0  18014-3 0  9993
2 27597  98.6320 316.0900 0001918 104.5087 255.6307 14.27718488 45437
H-2A R/B                
1 27601U 02056E   23010.50978716  .00000456  00000+0  17915-3 0  9998
2 27601  98.1832  10.4399 0072053   4.6382 106.0766 14.32188600 48792
CZ-4B R/B               
1 28059U 03049C   23010.12394461  .00000418  00000+0  11160-3 0  9990
2 28059  98.5430 315.3915 0050309 154.8446 205.5216 14.52933416 18807
CZ-2C R/B               
1 28222U 04012C   23010.56429940  .00006653  00000+0  35678-3 0  9999
2 28222  97.7927   0.7356 0044634  63.4769  53.2970 15.14455380 27591
SL-16 R/B               
1 28353U 04021B   23009.73976237  .00000345  00000+0  20558-3 0  9990
2 28353  71.0006 135.6138 0005658 331.8822  28.1994 14.14289969959510
CZ-4B R/B               
1 28415U 04035C   23009.54117550  .00003979  00000+0  24731-3 0  9991
2 28415  97.4909  50.3624 0049832  35.0485 325.4006 15.09180582  4677
CZ-2C R/B               
1 28480U 04046B   23009.64077810  .00000403  00000+0  16775-3 0  9998
2 28480  98.0897 346.3795 0141054 331.9971  27.3672 14.25910730943825
ARIANE 5 R/B            
1 28499U 04049H   23009.59163661  .00001369  00000+0  17254-3 0  9990
2 28499  98.1165 133.5015 0091967 128.1200 243.4489 14.80746815974589
CZ-2D R/B               
1 28738U 05024B   23010.00822412  .00005988  00000+0  31974-3 0  9990
2 28738  97.3530  16.2143 0011155 171.8665 188.2751 15.15431745963030
SUZAKU (ASTRO-EII)      
1 28773U 05025A   23010.37856479  .00011384  00000+0  45473-3 0  9996
2 28773  31.3810  26.6280 0004152 298.2290  61.7940 15.23890312966566
ALOS (DAICHI)           
1 28931U 06002A   23010.35659019  .00001313  00000+0  26181-3 0  9993
2 28931  97.9643 332.8344 0002017  45.6087 314.5278 14.63552881904680
H-2A R/B                
1 28932U 06002B   23009.61711728  .00003805  00000+0  33322-3 0  9990
2 28932  98.2643  68.1818 0085637 134.6126 226.2120 14.94555333920820
AKARI (ASTRO-F)         
1 28939U 06005A   23010.49125824  .00082073  00000+0  87220-3 0  9994
2 28939  98.1841 117.7391 0047808 251.1694 108.4373 15.62318158925224
CZ-4B R/B               
1 29093U 06015B   23009.41233706  .00089049  00000+0  53834-3 0  9990
2 29093  97.5651 249.8441 0025928 131.6063 228.7430 15.76861791931781
RESURS-DK 1             
1 29228U 06021A   23009.59665111  .00002856  00000+0  21427-3 0  9999
2 29228  69.9374 323.4502 0001478 133.5686 226.5598 15.03836399913360
GENESIS 1               
1 29252U 06029A   23009.57106936  .00009902  00000+0  41650-3 0  9996
2 29252  64.5220 113.2577 0044952 232.3434 127.3610 15.22957452910330
CZ-4B R/B               
1 29507U 06046C   23009.84069112  .00004283  00000+0  31961-3 0  9993
2 29507  97.7065  43.9440 0044414 256.9821 102.6443 15.02606498885858
CZ-2C R/B               
1 31114U 07010B   23010.16049244  .00000089  00000+0  60036-4 0  9999
2 31114  98.2556 174.1912 0060575  55.8437 304.8464 14.19484303815894
COSMO-SKYMED 1          
1 31598U 07023A   23010.52427088  .00000485  00000+0  67530-4 0  9991
2 31598  97.8863 196.2480 0001313  84.1696 275.9709 14.82154515843630
GENESIS 2               
1 31789U 07028A   23010.52081482  .00008911  00000+0  38158-3 0  9997
2 31789  64.4951 153.8532 0059613 283.7631  75.6863 15.21749024857448
COSMOS 2428             
1 31792U 07029A   23010.47563885 -.00000194  00000+0 -79167-4 0  9991
2 31792  70.9474 105.6885 0007068  99.5806 260.6113 14.12585104801162
SL-16 R/B               
1 31793U 07029B   23010.44097729  .00000305  00000+0  18418-3 0  9991
2 31793  70.9755  78.0217 0002528 271.8317  99.3390 14.14498997802222
KORONAS-FOTON           
1 33504U 09003A   23010.08713149  .00004351  00000+0  20938-3 0  9993
2 33504  82.4402   9.6228 0015948 274.3225  85.6187 15.18415836769432
CZ-2C R/B               
1 37731U 11030B   23010.18425525  .00001182  00000+0  17634-3 0  9999
2 37731  97.6951 351.4095 0059647 137.6336 233.5405 14.75391094619525
H-2A R/B                
1 38341U 12025E   23010.20733157  .00001784  00000+0  20969-3 0  9991
2 38341  98.4777 243.9614 0055398 101.0563 259.6887 14.85234497576413
CUSAT 2 & FALCON 9 R/B  
1 39271U 13055G   23010.33737282  .00026431  00000+0  52996-3 0  9996
2 39271  80.9552 325.7541 0488817 196.3096 162.1900 14.72804258487111
SHIJIAN-16 (SJ-16)      
1 39358U 13057A   23010.35009692  .00000949  00000+0  11010-3 0  9991
2 39358  74.9727 200.2194 0017668  19.5514 340.6354 14.86515042499730
CZ-2C R/B               
1 39364U 13059B   23010.11963061  .00015221  00000+0  43280-3 0  9996
2 39364  97.1313  61.5914 0037780 311.9667  47.8359 15.35508355511918
SL-4 R/B                
1 39679U 14021B   23010.14381789  .00005443  00000+0  25767-3 0  9994
2 39679  51.6142  72.3709 0160308 318.0882  40.7908 15.10303832480658
ALOS-2                  
1 39766U 14029A   23010.42905314 -.00000083  00000+0 -42443-5 0  9995
2 39766  97.9214 109.5966 0001469 104.5696 255.5698 14.79470851466239
CZ-2C R/B               
1 40306U 14071B   23010.49615363  .00557054  15207-3  77859-3 0  9992
2 40306  97.4184   3.4073 0002498 109.2786 250.8765 16.05909093459510
SL-27 R/B               
1 40354U 14084B   23009.88285319  .00011602  00000+0  22429-3 0  9992
2 40354  74.7349 244.8172 0031352 316.5420  43.3324 15.47233376452488
YAOGAN-29               
1 41038U 15069A   23010.36859622  .00000622  00000+0  87125-4 0  9990
2 41038  98.0610  16.6139 0002006 114.0239 246.1189 14.81044421384911
ASTRO-H (HITOMI)        
1 41337U 16012A   23010.19806840  .00002639  00000+0  20021-3 0  9997
2 41337  31.0032 186.8367 0012089 333.0073  26.9933 15.00035812378181
HXMT (HUIYAN)           
1 42758U 17034A   23010.25878218  .00006508  00000+0  38577-3 0  9999
2 42758  43.0183 289.9236 0008795 148.5133 347.5274 15.11897952307460
CZ-2C R/B               
1 43521U 18054D   23009.47348644  .00007879  00000+0  38431-3 0  9999
2 43521  35.1513 160.8934 0075459 108.7550 252.1370 15.15106248250923
AEOLUS                  
1 43600U 18066A   23010.53270126  .00119710  67879-5  46393-3 0  9995
2 43600  96.7303  18.1938 0011501 110.5743 249.6765 15.87127322253964
SAOCOM 1A               
1 43641U 18076A   23010.39761425 -.00000836  00000+0 -98505-4 0  9992
2 43641  97.8837 199.1388 0001344  81.0703 279.0596 14.82150527230381
H-2A R/B                
1 43682U 18084L   23009.71563294  .00006523  00000+0  43854-3 0  9997
2 43682  98.8987   9.1555 0052136 306.9558  52.6897 15.06086444230349
SAOCOM 1B               
1 46265U 20059A   23010.42878272 -.00000962  00000+0 -11432-3 0  9997
2 46265  97.8840 198.2311 0001230  88.1548 271.9909 14.82144549127780
CSS (TIANHE)            
1 48274U 21035A   23010.44841108  .00018208  00000+0  21947-3 0  9996
2 48274  41.4765  37.3507 0005717 303.2845 194.7819 15.60339772 97169
2022-019U               
1 51842U 22019U   23010.52060786  .00015170  00000+0  53796-3 0  9990
2 51842  97.5428  94.9123 0063706 180.2536 305.5937 15.27218823 48342
SZ-13 MODULE            
1 52260U 21092C   23010.05062965  .00119434  00000+0  41522-3 0  9996
2 52260  41.4762   9.9653 0012944 181.8822 178.1980 15.88112416 41986
CZ-2C R/B               
1 52794U 22058K   23009.89260722  .00004011  00000+0  21893-3 0  9995
2 52794  50.1729 271.8221 0100795 196.4126 163.3555 15.12349868 33514
